0192P         2024 05 24.5282  1.463703  0.773471  313.0618   51.5988   24.5832  20250227  15.0  4.0  192P/Shoemaker-Levy                                      MPEC 2024-YC7
0193P         2028 06  1.4611  2.173711  0.392693    8.1269  335.1871   10.6799  20250227  14.0  4.0  193P/LINEAR-NEAT                                         MPEC 2024-R10
0194P         2024 02  4.2967  1.799841  0.563374  128.6011  349.5169   11.8040  20250227  16.0  4.0  194P/LINEAR                                              MPEC 2024-GJ3
0195P         2025 08  5.1721  4.440757  0.311427  250.5439  243.1045   36.4190  20250227   8.5  4.0  195P/Hill                                                MPEC 2025-D44
0196P         2022 10 29.2798  2.178322  0.427649   12.1309   24.1225   19.2969  20250227  13.5  4.0  196P/Tichy                                               MPEC 2024-GJ3
0197P         2022 12  6.7824  1.100217  0.621169  189.8854   66.2368   25.4372  20250227  16.5  2.0  197P/LINEAR                                              MPEC 2023-UR6
0198P         2025 10  7.1079  1.994851  0.444629   69.0462  358.4692    1.3400  20250227  12.5  4.0  198P/ODAS                                                MPEC 2024-VJ2
0199P         2023 08  7.4301  2.910788  0.504519  191.7663   92.3461   24.9388  20250227  10.0  4.0  199P/Shoemaker                                           MPEC 2024-Q20
0200P         2030 08  5.9069  3.311481  0.331361  134.3927  234.8070   12.0959  20250227   9.0  4.0  200P/Larsen                                              MPEC 2022-C56
0201P         2027 07 20.0388  1.215843  0.637565   19.7945   41.5302    5.7378  20250227  14.0  4.0  201P/LONEOS                                              MPC 93588
0202P         2024 05 17.3196  3.069807  0.251191  274.4956  177.3008    2.1418  20250227  13.5  4.0  202P/Scotti                                              MPEC 2023-XP6
0203P         2020 03  7.2469  3.191234  0.316415  154.9193  290.2230    2.9758  20250227  14.5  2.0  203P/Korlevic                                            MPEC 2025-A40
0204P         2022 11 17.2119  1.833972  0.488290  356.7185  108.4740    6.5977  20250227  14.0  4.0  204P/LINEAR-NEAT                                         MPEC 2024-JU4
0205P         2022 01 12.7899  1.533363  0.567221  154.1647  179.6222   15.3011  20250227  13.0  4.0  205P/Giacobini                                           MPEC 2023_O39
0206P         2027 09 12.8978  1.566822  0.551221  189.5742  202.3455   33.6217  20250227  19.0  4.0  206P/Barnard-Boattini                                    MPC 75725
0207P         2024 01 31.8536  0.938318  0.758518  273.0145  198.1462   10.1995  20250227  16.0  4.0  207P/NEAT                                                MPEC 2024-NE4
0208P         2024 08 24.0521  2.528821  0.373893  310.7194   36.3356    4.4122  20250227  12.5  4.0  208P/McMillan                                            MPEC 2025-CE3
0209P         2024 07 14.4922  0.964269  0.674017  152.4835   62.7679   21.2825  20250227  17.0  2.0  209P/LINEAR                                              MPEC 2024-TD8
0210P         2025 11 22.7142  0.524483  0.834080  345.9134   93.8252   10.2821  20250227  13.5  4.0  210P/Christensen                                         MPC105242
0211P         2022 10  5.0529  2.326418  0.344455    4.3394  117.1016   18.9239  20250227  12.5  4.0  211P/Hill                                                MPEC 2024-JU4
0212P         2024 04 25.1348  1.612693  0.586743   14.0486   97.9721   22.1490  20250227  17.0  2.0  212P/NEAT                                                MPEC 2024-GJ3
0213P         2023 11 12.5624  1.981804  0.408991    6.1967  311.0938   10.3944  20250227  10.5  4.0  213P/VanNess                                             MPEC 2025-A40
0213P      b  2023 11 13.4274  1.981270  0.409141  311.7254    5.5587   10.3612  20250227  17.0  4.0  213P-B/Van Ness                                          MPC 76570
0213P      c  2023 11 11.7684  1.981401  0.408990  311.7304    5.5365   10.3585  20250227  17.5  4.0  213P-C/Van Ness                                          MPC 76570
0214P         2022 09 26.2613  1.858365  0.486171  190.1210  348.2128   15.1912  20250227  13.0  4.0  214P/LINEAR                                              MPC 92986
0215P         2028 11 24.6460  3.620152  0.164980  262.2974   56.6758   10.5764  20250227  11.0  4.0  215P/NEAT                                                MPEC 2024-F91
0216P         2024 01  6.9517  2.126962  0.448962  151.7569  359.7873    9.0617  20250227  13.0  4.0  216P/LINEAR                                              MPEC 2024-N80
0217P         2025 05 24.9431  1.226372  0.689085  247.0355  125.3716   12.8655  20250227  12.0  4.0  217P/LINEAR                                              MPEC 2025-CE3
0218P         2026 03  3.8046  1.131121  0.630904   61.2497  174.7687    2.7250  20250227  16.0  4.0  218P/LINEAR                                              MPEC 2022-K19
0219P         2024 02 14.5100  2.355781  0.355070  107.8103  230.9465   11.5326  20250227  11.0  4.0  219P/LINEAR                                              MPEC 2025-CE3
0220P         2026 06 14.1466  1.558623  0.500430  180.5930  150.0942    8.1212  20250227  15.0  4.0  220P/McNaught                                            MPEC 2024-A43
0221P         2028 04  9.3112  1.645493  0.515904   39.9732  228.5240   11.2140  20250227  14.5  4.0  221P/LINEAR                                              MPEC 2022-UY9
0222P         2024 05 12.8917  0.826305  0.714761  346.2805    6.7634    5.0966  20250227  20.0  4.0  222P/LINEAR                                              MPC 92277
0223P         2027 07 24.6864  2.426971  0.416333   37.9794  346.7126   27.0065  20250227  12.0  4.0  223P/Skiff                                               MPEC 2023-A50
0224P         2022 09 30.1968  2.048540  0.405674   16.8037   40.0412   13.3029  20250227  15.5  4.0  224P/LINEAR-NEAT                                         MPEC 2024-L77
0225P         2023 08  7.9244  1.319518  0.638239    3.9077   14.2083   21.3630  20250227  18.0  4.0  225P/LINEAR                                              MPEC 2024-F91
0226P         2023 12 27.1019  1.773772  0.528930  341.0320   54.0114   44.0452  20250227  12.5  4.0  226P/Pigott-LINEAR-Kowalski                              MPEC 2024-MB8
0227P         2024 03  8.2974  1.623587  0.527663  105.5837   36.8063    7.5077  20250227  16.5  2.0  227P/Catalina-LINEAR                                     MPEC 2024-R10
0228P         2028 09  5.1251  3.424722  0.177285  114.7702   30.9591    7.9150  20250227  14.1  4.0  228P/LINEAR                                              MPEC 2022-HC2
0229P         2025 03  5.7696  2.440369  0.377919  224.2117  157.8838   26.0973  20250227  13.0  4.0  229P/Gibbs                                               MPEC 2025-CE3
0230P         2022 03 19.7050  1.570095  0.545541  313.5731  106.9285   15.4717  20250227  13.0  4.0  230P/LINEAR                                              MPEC 2024-P23
0231P         2027 08  5.1566  3.084684  0.240142   43.8191  132.8018   12.2717  20250227  14.5  2.0  231P/LINEAR-NEAT                                         MPEC 2023-SQ0
0232P         2028 09 20.5253  2.968133  0.336056   53.2759   56.0177   14.6432  20250227  11.5  4.0  232P/Hill                                                MPC112394
0233P         2026 01  8.1436  1.776772  0.412944   27.0222   74.8987   11.2888  20250227  15.0  4.0  233P/La Sagra                                            MPEC 2021-N06
0234P         2024 10 23.6211  2.820860  0.257185  357.4303  179.5667   11.5342  20250227  12.0  4.0  234P/LINEAR                                              MPEC 2025-A40
0235P         2025 12 22.4612  1.978406  0.426398  352.0882  200.2037    9.8127  20250227  12.0  4.0  235P/LINEAR                                              MPEC 2025-CE3
0236P         2025 02  3.8133  1.828091  0.509144  119.4192  245.5690   16.3558  20250227  14.0  4.0  236P/LINEAR                                              MPEC 2024-P23
0237P         2023 05 14.6695  1.992726  0.433154   25.4846  245.3549   14.0156  20250227  14.5  2.0  237P/LINEAR                                              MPEC 2025-CE3
0238P         2022 06  5.1246  2.373071  0.250737  324.2723   51.6462    1.2638  20250227  14.5  4.0  238P/Read                                                MPEC 2024-L77
0239P         2028 06 17.6477  1.645307  0.631443  220.3680  255.9440   11.3075  20250227  17.5  2.0  239P/LINEAR                                              MPEC 2021-F20
0240P         2025 12 19.9746  2.121791  0.450345  352.0656   74.9151   23.5370  20250227  11.0  4.0  240P/NEAT                                                MPEC 2024-YC7
0241P         2021 07 26.2677  1.920305  0.610258  111.5961  305.4254   21.0946  20250227  13.5  4.0  241P/LINEAR                                              MPEC 2022-J42
0242P         2024 12 23.2525  3.971618  0.282767  244.9327  180.2809   32.4259  20250227   8.0  4.0  242P/Spahr                                               MPEC 2025-D44
0243P         2026 02 25.5077  2.448001  0.360371  283.6979   87.6481    7.6442  20250227  12.5  4.0  243P/NEAT                                                MPEC 2022-K19
0244P         2022 11 19.8320  3.923540  0.199883   93.4565  354.0091    2.2578  20250227   9.0  4.0  244P/Scotti                                              MPEC 2024-L77
0245P         2026 03 31.2343  2.205411  0.455738  316.5098  316.8862   21.1718  20250227  14.0  4.0  245P/WISE                                                MPEC 2022-CN4
0246P         2020 12 13.0649  3.293244  0.228469  185.6834   74.2510   17.6332  20250227  10.5  4.0  246P/NEAT                                                MPEC 2024-YC7
